NORAD_CAT_ID,OBJECT_NAME,OBJECT_TYPE,EPOCH,MEAN_MOTION,ECCENTRICITY,INCLINATION,RA_OF_ASC_NODE,ARG_OF_PERICENTER,MEAN_ANOMALY,BSTAR,MEAN_MOTION_DOT,MEAN_MOTION_DDOT,TLE_LINE0,TLE_LINE1,TLE_LINE2,SEMIMAJOR_AXIS,PERIOD,APOGEE,PERIGEE,DECAYED
52873.0,STARLINK-4211,PAYLOAD,2024-05-16 14:52:35,15.08861506,0.0001185,53.2158,106.2632,94.782,265.3307,0.000121,1.639e-05,0.0,0 STARLINK-4211,1 52873U 22062AV  24137.61985657  .00001639  00000-0  12100-3 0  9997,2 52873  53.2158 106.2632 0001185  94.7820 265.3307 15.08861506106111,6917.815,95.436,540.499,538.86,0.0
52873.0,STARLINK-4211,PAYLOAD,2024-05-17 05:11:04,15.08841003,0.0001479,53.2167,103.589,90.7613,269.3548,-6.1912e-05,-1.273e-05,0.0,0 STARLINK-4211,1 52873U 22062AV  24138.21602700 -.00001273  00000-0 -61912-4 0  9991,2 52873  53.2167 103.5890 0001479  90.7613 269.3548 15.08841003106693,6917.877,95.437,540.765,538.719,0.0
52873.0,STARLINK-4211,PAYLOAD,2024-05-17 14:43:22,15.08854313,0.0001319,53.2165,101.8016,76.6595,283.4544,0.00015921,2.248e-05,0.0,0 STARLINK-4211,1 52873U 22062AV  24138.61345833  .00002248  00000-0  15921-3 0  9995,2 52873  53.2165 101.8016 0001319  76.6595 283.4544 15.08854313106261,6917.837,95.437,540.614,538.789,0.0
52873.0,STARLINK-4211,PAYLOAD,2024-05-18 05:01:51,15.0884671,0.0001285,53.2166,99.1279,87.7361,272.3778,0.0001525,2.14e-05,0.0,0 STARLINK-4211,1 52873U 22062AV  24139.20962379  .00002140  00000-0  15250-3 0  9997,2 52873  53.2166  99.1279 0001285  87.7361 272.3778 15.08846710106840,6917.86,95.437,540.614,538.836,0.0
52873.0,STARLINK-4211,PAYLOAD,2024-05-18 14:34:10,15.08853063,0.0001406,53.2171,97.3451,94.1869,265.9284,0.0001885,2.714e-05,0.0,0 STARLINK-4211,1 52873U 22062AV  24139.60706072  .00002714  00000-0  18850-3 0  9993,2 52873  53.2171  97.3451 0001406  94.1869 265.9284 15.08853063106410,6917.84,95.437,540.678,538.733,0.0
52873.0,STARLINK-4211,PAYLOAD,2024-05-18 20:55:44,15.0881571,0.0001429,53.218,96.1548,99.181,260.9343,-0.00027037,-4.585e-05,0.0,0 STARLINK-4211,1 52873U 22062AV  24139.87203833 -.00004585  00000-0 -27037-3 0  9996,2 52873  53.2180  96.1548 0001429  99.1810 260.9343 15.08815710106946,6917.955,95.439,540.808,538.831,0.0
52873.0,STARLINK-4211,PAYLOAD,2024-05-19 03:17:16,15.08821808,0.0001218,53.2161,94.9661,98.1532,261.9598,-0.00014578,-2.606e-05,0.0,0 STARLINK-4211,1 52873U 22062AV  24140.13699756 -.00002606  00000-0 -14578-3 0  9998,2 52873  53.2161  94.9661 0001218  98.1532 261.9598 15.08821808106491,6917.936,95.439,540.644,538.958,0.0
52873.0,STARLINK-4211,PAYLOAD,2024-05-19 20:46:31,15.0883803,0.0001292,53.215,91.6935,104.1717,255.9419,0.0003823,5.801e-05,0.0,0 STARLINK-4211,1 52873U 22062AV  24140.86563719  .00005801  00000-0  38230-3 0  9996,2 52873  53.2150  91.6935 0001292 104.1717 255.9419 15.08838030107099,6917.886,95.438,540.645,538.858,0.0
52873.0,STARLINK-4211,PAYLOAD,2024-05-20 03:08:03,15.08848968,0.0001395,53.2154,90.5037,110.2974,249.8168,0.0010617,0.00016653,0.0,0 STARLINK-4211,1 52873U 22062AV  24141.13059838  .00016653  00000-0  10617-2 0  9994,2 52873  53.2154  90.5037 0001395 110.2974 249.8168 15.08848968106645,6917.853,95.437,540.683,538.753,0.0
52873.0,STARLINK-4211,PAYLOAD,2024-05-21 02:58:50,15.08836689,0.0001542,53.2173,86.0429,113.7414,246.374,0.00012796,1.749e-05,0.0,0 STARLINK-4211,1 52873U 22062AV  24142.12420111  .00001749  00000-0  12796-3 0  9991,2 52873  53.2173  86.0429 0001542 113.7414 246.3740 15.08836689107288,6917.891,95.438,540.822,538.689,0.0
52873.0,STARLINK-4211,PAYLOAD,2024-05-22 06:00:24,15.08841571,0.0001373,53.2171,80.9865,106.8482,253.2661,5.6985e-05,6.19e-06,0.0,0 STARLINK-4211,1 52873U 22062AV  24143.25027992  .00000619  00000-0  56985-4 0  9990,2 52873  53.2171  80.9865 0001373 106.8482 253.2661 15.08841571107457,6917.876,95.437,540.69,538.791,0.0
52873.0,STARLINK-4211,PAYLOAD,2024-05-23 01:05:01,15.08847502,0.0001268,53.2179,77.4194,88.9636,271.1501,0.00023582,3.468e-05,0.0,0 STARLINK-4211,1 52873U 22062AV  24144.04515273  .00003468  00000-0  23582-3 0  9993,2 52873  53.2179  77.4194 0001268  88.9636 271.1501 15.08847502107570,6917.857,95.437,540.6,538.845,0.0
52873.0,STARLINK-4211,PAYLOAD,2024-05-24 04:06:34,15.08856891,0.0001081,53.2182,72.367,92.33,267.7816,-0.00033695,-5.649e-05,0.0,0 STARLINK-4211,1 52873U 22062AV  24145.17123827 -.00005649  00000-0 -33695-3 0  9999,2 52873  53.2182  72.3670 0001081  92.3300 267.7816 15.08856891107747,6917.829,95.436,540.442,538.946,0.0
52873.0,STARLINK-4211,PAYLOAD,2024-05-24 18:25:03,15.08835589,0.0001318,53.2183,69.6909,98.0657,262.0484,-6.4066e-05,-1.307e-05,0.0,0 STARLINK-4211,1 52873U 22062AV  24145.76740578 -.00001307  00000-0 -64066-4 0  9996,2 52873  53.2183  69.6909 0001318  98.0657 262.0484 15.08835589107833,6917.894,95.438,540.671,538.847,0.0
52873.0,STARLINK-4211,PAYLOAD,2024-05-25 11:54:17,15.08839618,0.0001494,53.2183,66.4205,126.2323,233.8807,7.1138e-05,8.44e-06,0.0,0 STARLINK-4211,1 52873U 22062AV  24146.49603976  .00000844  00000-0  71138-4 0  9998,2 52873  53.2183  66.4205 0001494 126.2323 233.8807 15.08839618107940,6917.882,95.438,540.78,538.713,0.0
52873.0,STARLINK-4211,PAYLOAD,2024-05-25 18:15:51,15.08820109,0.0001247,53.2184,65.2309,116.2791,243.8329,-2.9787e-06,-3.35e-06,0.0,0 STARLINK-4211,1 52873U 22062AV  24146.76101476 -.00000335  00000-0 -29787-5 0  9997,2 52873  53.2184  65.2309 0001247 116.2791 243.8329 15.08820109107986,6917.941,95.439,540.669,538.944,0.0
52873.0,STARLINK-4211,PAYLOAD,2024-05-26 03:48:09,15.0883549,0.0001259,53.2186,63.4446,100.3357,259.7777,0.00012832,1.755e-05,0.0,0 STARLINK-4211,1 52873U 22062AV  24147.15844443  .00001755  00000-0  12832-3 0  9995,2 52873  53.2186  63.4446 0001259 100.3357 259.7777 15.08835490108045,6917.894,95.438,540.63,538.888,0.0
52873.0,STARLINK-4211,PAYLOAD,2024-05-26 22:52:47,15.08835446,0.0001246,53.2186,59.8774,91.9899,268.1236,0.00012496,1.701e-05,0.0,0 STARLINK-4211,1 52873U 22062AV  24147.95332656  .00001701  00000-0  12496-3 0  9998,2 52873  53.2186  59.8774 0001246  91.9899 268.1236 15.08835446107673,6917.894,95.438,540.621,538.897,0.0
52873.0,STARLINK-4211,PAYLOAD,2024-05-27 11:35:52,15.08840273,0.0001264,53.2186,57.4984,92.7058,267.4079,8.7565e-05,1.106e-05,0.0,0 STARLINK-4211,1 52873U 22062AV  24148.48324502  .00001106  00000-0  87565-4 0  9997,2 52873  53.2186  57.4984 0001264  92.7058 267.4079 15.08840273108241,6917.88,95.438,540.619,538.87,0.0
52873.0,STARLINK-4211,PAYLOAD,2024-05-27 22:43:34,15.08842798,0.0001197,53.2185,55.4155,100.6947,259.418,1.8933e-05,1.4e-07,0.0,0 STARLINK-4211,1 52873U 22062AV  24148.94692439  .00000014  00000-0  18933-4 0  9995,2 52873  53.2185  55.4155 0001197 100.6947 259.4180 15.08842798107820,6917.872,95.437,540.565,538.909,0.0
52873.0,STARLINK-4211,PAYLOAD,2024-05-28 03:29:43,15.08842604,0.0001191,53.2185,54.5236,100.1421,259.9706,1.6099e-05,-3.2e-07,0.0,0 STARLINK-4211,1 52873U 22062AV  24149.14564417 -.00000032  00000-0  16099-4 0  9994,2 52873  53.2185  54.5236 0001191 100.1421 259.9706 15.08842604107854,6917.872,95.437,540.561,538.914,0.0
52873.0,STARLINK-4211,PAYLOAD,2024-05-28 20:58:58,15.08843336,0.0001125,53.2182,51.2525,90.7334,269.3787,2.9958e-06,-2.4e-06,0.0,0 STARLINK-4211,1 52873U 22062AV  24149.87428250 -.00000240  00000-0  29958-5 0  9998,2 52873  53.2182  51.2525 0001125  90.7334 269.3787 15.08843336108454,6917.87,95.437,540.513,538.957,0.0
52873.0,STARLINK-4211,PAYLOAD,2024-05-28 22:34:21,15.08841599,0.0001151,53.2181,50.9552,86.0661,274.0462,-1.0407e-05,-4.53e-06,0.0,0 STARLINK-4211,1 52873U 22062AV  24149.94052472 -.00000453  00000-0 -10407-4 0  9990,2 52873  53.2181  50.9552 0001151  86.0661 274.0462 15.08841599107977,6917.876,95.437,540.537,538.944,0.0
52873.0,STARLINK-4211,PAYLOAD,2024-05-29 00:09:44,15.08842717,0.0001175,53.218,50.6577,88.3126,271.8001,-2.0893e-07,-2.91e-06,0.0,0 STARLINK-4211,1 52873U 22062AV  24150.00676347 -.00000291  00000-0 -20893-6 0  9994,2 52873  53.2180  50.6577 0001175  88.3126 271.8001 15.08842717107985,6917.872,95.437,540.55,538.924,0.0
52873.0,STARLINK-4211,PAYLOAD,2024-05-29 20:49:45,15.08835915,0.0001217,53.218,46.7921,90.691,269.4222,2.1997e-06,-2.53e-06,0.0,0 STARLINK-4211,1 52873U 22062AV  24150.86788736 -.00000253  00000-0  21997-5 0  9996,2 52873  53.2180  46.7921 0001217  90.6910 269.4222 15.08835915108608,6917.893,95.438,540.6,538.916,0.0
52873.0,STARLINK-4211,PAYLOAD,2024-05-29 22:25:08,15.08836166,0.000122,53.218,46.4947,90.9453,269.1679,4.0709e-06,-2.23e-06,0.0,0 STARLINK-4211,1 52873U 22062AV  24150.93412724 -.00000223  00000-0  40709-5 0  9994,2 52873  53.2180  46.4947 0001220  90.9453 269.1679 15.08836166108121,6917.892,95.438,540.601,538.913,0.0
52873.0,STARLINK-4211,PAYLOAD,2024-05-30 00:00:31,15.08836215,0.0001221,53.2181,46.1971,92.6301,267.4831,1.0681e-05,-1.18e-06,0.0,0 STARLINK-4211,1 52873U 22062AV  24151.00036698 -.00000118  00000-0  10681-4 0  9993,2 52873  53.2181  46.1971 0001221  92.6301 267.4831 15.08836215108135,6917.892,95.438,540.602,538.912,0.0
52873.0,STARLINK-4211,PAYLOAD,2024-05-30 22:15:55,15.08836254,0.0001241,53.2181,42.0346,100.3852,259.728,6.3303e-06,-1.87e-06,0.0,0 STARLINK-4211,1 52873U 22062AV  24151.92772851 -.00000187  00000-0  63303-5 0  9998,2 52873  53.2181  42.0346 0001241 100.3852 259.7280 15.08836254108276,6917.892,95.438,540.615,538.898,0.0
52873.0,STARLINK-4211,PAYLOAD,2024-05-31 20:31:18,15.08846247,0.0001294,53.2191,37.8696,71.9063,288.207,0.00010857,1.441e-05,0.0,0 STARLINK-4211,1 52873U 22062AV  24152.85507640  .00001441  00000-0  10857-3 0  9990,2 52873  53.2191  37.8696 0001294  71.9063 288.2070 15.08846247108909,6917.861,95.437,540.621,538.831,0.0
52873.0,STARLINK-4211,PAYLOAD,2024-05-31 22:06:41,15.08842744,0.0001014,53.2188,37.5727,79.9095,280.2012,7.7569e-05,9.47e-06,0.0,0 STARLINK-4211,1 52873U 22062AV  24152.92131830  .00000947  00000-0  77569-4 0  9996,2 52873  53.2188  37.5727 0001014  79.9095 280.2012 15.08842744108423,6917.872,95.437,540.438,539.036,0.0
